{"type": "FeatureCollection", "features": [ {"type": "Feature", "properties": {"norad_id": 67132, "name": "CZ-4B R/B", "group": "last-30-days", "lat": 41.63095851199813, "lon": -107.75813791375404, "alt_km": 437.8008262661597, "timestamp": "2025-12-17T07:00:45.615030+00:00", "meta": {"OBJECT_NAME": "CZ-4B R/B", "OBJECT_ID": "2025-300B", "EPOCH": "2025-12-16T16:36:35.897760", "MEAN_MOTION": 15.63436967, "ECCENTRICITY": 0.01737904, "INCLINATION": 97.5576, "RA_OF_ASC_NODE": 64.8224, "ARG_OF_PERICENTER": 16.477, "MEAN_ANOMALY": 344.2037, "EPHEMERIS_TYPE": 0, "CLASSIFICATION_TYPE": "U", "NORAD_CAT_ID": 67132, "ELEMENT_SET_NO": 999, "REV_AT_EPOCH": 9, "BSTAR": 0.00023006068, "MEAN_MOTION_DOT": 0.00046587, "MEAN_MOTION_DDOT": 2.779206e-06}, "tle": {"line1": "1 67132U 25300B   25350.69208215  .00046587  27792-5  23006-3 0  9993", "line2": "2 67132  97.5576  64.8224 0173790  16.4770 344.2037 15.63436967    90"}}, "geometry": {"type": "Point", "coordinates": [-107.75813791375404, 41.63095851199813]}}]}